{"fetched_at":"2026-07-14T06:35:07.304Z","source":"https://celestrak.org/NORAD/elements/gp.php?NAME=SPOT&FORMAT=JSON","constellation":"spot","records":[{"OBJECT_NAME":"SPOT 6","OBJECT_ID":"2012-047A","EPOCH":"2026-07-13T19:34:20.555616","CLASSIFICATION_TYPE":"U","MEAN_MOTION":14.58537838,"ECCENTRICITY":0.0001124,"INCLINATION":98.2115,"RA_OF_ASC_NODE":261.8108,"ARG_OF_PERICENTER":83.1764,"MEAN_ANOMALY":276.9563,"EPHEMERIS_TYPE":0,"NORAD_CAT_ID":38755,"ELEMENT_SET_NO":999,"REV_AT_EPOCH":73693,"BSTAR":0.000013497,"MEAN_MOTION_DOT":1.7e-7,"MEAN_MOTION_DDOT":0},{"OBJECT_NAME":"SPOT 7","OBJECT_ID":"2014-034A","EPOCH":"2026-07-13T19:45:59.338944","CLASSIFICATION_TYPE":"U","MEAN_MOTION":14.60980046,"ECCENTRICITY":0.0001593,"INCLINATION":98.0624,"RA_OF_ASC_NODE":256.6271,"ARG_OF_PERICENTER":95.095,"MEAN_ANOMALY":265.0433,"EPHEMERIS_TYPE":0,"NORAD_CAT_ID":40053,"ELEMENT_SET_NO":999,"REV_AT_EPOCH":64102,"BSTAR":0.000049754,"MEAN_MOTION_DOT":0.00000199,"MEAN_MOTION_DDOT":0}]}
