SPOT 6                  
1 38755U 12047A   26194.81551569  .00000017  00000+0  13497-4 0  9999
2 38755  98.2115 261.8108 0001124  83.1764 276.9563 14.58537838736937
SPOT 7                  
1 40053U 14034A   26194.82360346  .00000199  00000+0  49754-4 0  9999
2 40053  98.0624 256.6271 0001593  95.0950 265.0433 14.60980046641022
